IRIDIUM 116             
1 43072U 17083C   23321.85161344  .00000272  00000+0  90133-4 0  9998
2 43072  86.3981 355.8567 0002229  90.1785 269.9667 14.34219055309109
IRIDIUM 130             
1 43073U 17083D   23321.81989854  .00000277  00000+0  91893-4 0  9998
2 43073  86.3991 356.0537 0002212  96.0568 264.0880 14.34219023309048
IRIDIUM 151             
1 43074U 17083E   23321.86429569  .00000274  00000+0  90903-4 0  9994
2 43074  86.3984 355.8878 0002076  88.1893 271.9541 14.34218505309075
IRIDIUM 134             
1 43075U 17083F   23321.83257361  .00000273  00000+0  90265-4 0  9991
2 43075  86.3986 355.8962 0002357  95.4991 264.6473 14.34212708309032
IRIDIUM 137             
1 43076U 17083G   23321.84527197  .00000269  00000+0  88978-4 0  9993
2 43076  86.3986 355.9651 0002353  85.0736 275.0729 14.34219088309103
IRIDIUM 141             
1 43077U 17083H   23321.83892910  .00000279  00000+0  92597-4 0  9994
2 43077  86.3983 355.8515 0002003  93.1879 266.9546 14.34219032309104
IRIDIUM 153             
1 43078U 17083J   23321.72133960  .00000187  00000+0  59690-4 0  9991
2 43078  86.3946 324.3576 0001862  95.6354 264.5054 14.34217069310196
IRIDIUM 131             
1 43079U 17083K   23321.54717863  .00000280  00000+0  92825-4 0  9993
2 43079  86.3988 356.0965 0002071  94.4497 265.6935 14.34216483308999
